STARLINK-2460           
1 48120U 21027AE  26068.55193043  .00001444  00000+0  60877-4 0  9993
2 48120  53.1595 168.4494 0001173  88.5814 271.5321 15.30193110272463
TEVEL2-2                
1 63219U 25052K   26068.64848259  .00020339  00000+0  69428-3 0  9991
2 63219  97.3987 324.7700 0004693 105.7930 254.3828 15.30343745 54855
